{"type":"FeatureCollection","features":[{"type":"Feature","geometry":{"type":"Polygon","coordinates":[[[-4.7221,41.1493],[-4.7171,41.0892],[-4.7091,41.0854],[-4.7032,41.0524],[-4.6395,41.0301],[-4.6067,40.9708],[-4.5664,40.9562],[-4.5553,40.8936],[-4.5353,40.8724],[-4.5464,40.8255],[-4.4932,40.8305],[-4.4806,40.7862],[-4.4311,40.7424],[-4.4196,40.6334],[-4.3197,40.6475],[-4.275,40.6765],[-4.2529,40.6895],[-4.1603,40.6899],[-4.1765,40.6163],[-4.2835,40.5957],[-4.2892,40.5641],[-4.3237,40.5496],[-4.3268,40.414],[-4.4147,40.4104],[-4.4437,40.3857],[-4.4558,40.3193],[-4.5044,40.3151],[-4.5692,40.2572],[-4.5607,40.2228],[-4.6401,40.1972],[-4.6873,40.212],[-4.6981,40.2822],[-4.7612,40.2609],[-4.9137,40.1736],[-4.9255,40.136],[-4.9609,40.1216],[-5.0067,40.1299],[-5.0185,40.1591],[-5.0628,40.1516],[-5.128,40.102],[-5.1998,40.0824],[-5.2153,40.1078],[-5.3201,40.1079],[-5.367,40.1604],[-5.3697,40.2183],[-5.3434,40.2635],[-5.4291,40.2526],[-5.4991,40.1989],[-5.5481,40.1972],[-5.61,40.2155],[-5.622,40.2459],[-5.6927,40.2921],[-5.7376,40.2941],[-5.6864,40.3554],[-5.6912,40.422],[-5.6342,40.4604],[-5.5898,40.4672],[-5.5448,40.4231],[-5.5094,40.4591],[-5.4605,40.474],[-5.4311,40.5672],[-5.5119,40.5482],[-5.4997,40.5816],[-5.4477,40.5796],[-5.3732,40.6388],[-5.376,40.6465],[-5.3648,40.6794],[-5.2928,40.7103],[-5.1615,40.814],[-5.1638,40.8684],[-5.1525,40.874],[-5.1113,40.9156],[-5.1216,40.9315],[-5.1249,40.9436],[-5.1259,40.9488],[-5.1276,40.9541],[-5.092,41.0069],[-5.0995,41.013],[-5.1465,41.0436],[-5.1486,41.0922],[-5.1249,41.132],[-5.0599,41.1386],[-4.9897,41.1608],[-4.8637,41.094],[-4.828,41.0992],[-4.7862,41.1436],[-4.7221,41.1493]]]},"properties":{"Codigo":"05","Texto":"Ávila","Texto_Alt":"Ávila","Cod_CCAA":"07","CCAA":"Castilla y León"}},{"type":"Feature","geometry":{"type":"MultiPolygon","coordinates":[[[[-2.8263,42.7853],[-2.7316,42.7945],[-2.5626,42.7411],[-2.5897,42.7106],[-2.5781,42.674],[-2.6349,42.6478],[-2.6592,42.6725],[-2.7679,42.666],[-2.7845,42.6989],[-2.8253,42.7089],[-2.8629,42.7455],[-2.8263,42.7853]]],[[[-2.9136,42.0229],[-3.0081,41.9222],[-3.0168,41.8869],[-3.0877,41.8763],[-3.1387,41.8123],[-3.279,41.8679],[-3.2836,41.7782],[-3.2795,41.7727],[-3.3544,41.7373],[-3.3584,41.6934],[-3.4071,41.6759],[-3.4592,41.5896],[-3.4685,41.589],[-3.5397,41.6076],[-3.5416,41.5776],[-3.6453,41.5721],[-3.7283,41.5176],[-3.7324,41.4699],[-3.7698,41.4602],[-3.7715,41.5223],[-3.8006,41.5211],[-3.8239,41.4811],[-3.8637,41.529],[-3.9145,41.5635],[-3.9807,41.5834],[-4.0304,41.6305],[-4.026,41.6924],[-4.0529,41.7196],[-4.0409,41.7684],[-4.038,41.7899],[-4.0901,41.8309],[-4.0888,41.8707],[-4.0376,41.8728],[-3.9807,41.9006],[-3.9907,41.9598],[-4.0148,41.9986],[-3.9802,42.043],[-4.0109,42.0515],[-4.0799,42.0368],[-4.1041,42.0616],[-4.0562,42.1009],[-4.1202,42.1281],[-4.205,42.1336],[-4.1886,42.1764],[-4.2321,42.2173],[-4.2322,42.2569],[-4.2935,42.3881],[-4.331,42.3909],[-4.3353,42.4306],[-4.3067,42.4551],[-4.2533,42.4567],[-4.2461,42.4924],[-4.2721,42.52],[-4.2939,42.6053],[-4.2739,42.617],[-4.257,42.6881],[-4.145,42.7525],[-4.1096,42.7339],[-4.0813,42.7615],[-4.0459,42.7666],[-3.9996,42.769],[-3.9657,42.7586],[-3.8944,42.8045],[-3.8542,42.7876],[-3.8217,42.8003],[-3.8254,42.8686],[-3.8607,42.8872],[-3.8299,42.9277],[-3.8671,42.9548],[-3.8913,42.9255],[-3.9434,42.9093],[-3.991,42.9311],[-3.9455,43.0058],[-3.8907,43.0418],[-3.8345,43.0581],[-3.7549,43.1005],[-3.7047,43.1163],[-3.651,43.181],[-3.5076,43.136],[-3.4219,43.1324],[-3.3506,43.1544],[-3.2781,43.1944],[-3.2235,43.1723],[-3.1412,43.1654],[-3.1818,43.1209],[-3.1339,43.0972],[-3.1448,43.0068],[-3.0718,43.0056],[-3.0415,42.9699],[-2.9812,42.9394],[-3.0189,42.9085],[-3.1265,42.9041],[-3.1447,42.9347],[-3.2247,42.9497],[-3.2826,42.8755],[-3.2258,42.8301],[-3.1907,42.8695],[-3.1499,42.8613],[-3.1592,42.8046],[-3.1006,42.7672],[-3.017,42.7411],[-2.987,42.7089],[-2.9025,42.6936],[-2.8961,42.655],[-2.9335,42.6345],[-3.0048,42.6443],[-3.0694,42.6388],[-3.0635,42.5913],[-3.1054,42.5539],[-3.0718,42.5277],[-3.0733,42.4765],[-3.0531,42.3734],[-3.1097,42.3514],[-3.0896,42.273],[-3.1038,42.2137],[-3.1279,42.2016],[-3.0344,42.086],[-2.9325,42.0809],[-2.9136,42.0229]]]]},"properties":{"Codigo":"09","Texto":"Burgos","Texto_Alt":"Burgos","Cod_CCAA":"07","CCAA":"Castilla y León"}},{"type":"Feature","geometry":{"type":"Polygon","coordinates":[[[-4.737,43.021],[-4.7948,42.9867],[-4.8145,42.9234],[-4.8555,42.8917],[-4.8886,42.8411],[-4.9091,42.7794],[-4.9364,42.7445],[-4.8717,42.708],[-4.9003,42.6701],[-4.8947,42.6239],[-4.916,42.5548],[-4.888,42.537],[-4.9034,42.3856],[-4.9726,42.3744],[-4.9425,42.3465],[-4.9534,42.2972],[-5.0021,42.2891],[-5.0938,42.3093],[-5.1979,42.2605],[-5.2447,42.2639],[-5.2656,42.2109],[-5.3121,42.1998],[-5.3881,42.2214],[-5.3889,42.1725],[-5.3715,42.1301],[-5.3763,42.0415],[-5.4216,42.0307],[-5.4809,42.0524],[-5.5209,42.0971],[-5.5528,42.0637],[-5.5973,42.0794],[-5.6053,42.0806],[-5.6434,42.131],[-5.7429,42.1133],[-5.7595,42.1344],[-5.8381,42.1188],[-5.9116,42.1406],[-5.9535,42.1237],[-6.0288,42.1576],[-6.1055,42.162],[-6.2124,42.1481],[-6.252,42.1731],[-6.3295,42.1999],[-6.4279,42.2019],[-6.4976,42.182],[-6.526,42.2034],[-6.6133,42.2032],[-6.6386,42.2173],[-6.7038,42.2094],[-6.7843,42.2536],[-6.7411,42.2987],[-6.734,42.3591],[-6.8208,42.3856],[-6.8083,42.4686],[-6.9251,42.5194],[-6.9739,42.494],[-7.0522,42.5086],[-7.071,42.5379],[-7.0341,42.5841],[-7.047,42.6327],[-7.01,42.6498],[-7.0452,42.6948],[-7.0109,42.7237],[-6.9356,42.7409],[-6.8678,42.7872],[-6.8445,42.8281],[-6.8713,42.8738],[-6.7232,42.9174],[-6.6129,42.9246],[-6.5412,42.9125],[-6.4416,42.9396],[-6.3974,43.0383],[-6.3583,43.0567],[-6.3269,43.0313],[-6.2268,43.0089],[-6.2139,43.0467],[-6.1784,43.0478],[-6.1367,43.021],[-6.0898,43.0382],[-6.0919,43.0669],[-6.0206,43.0549],[-5.975,43.0654],[-5.9567,43.0186],[-5.8503,42.9674],[-5.7639,42.9701],[-5.7284,43.0425],[-5.6883,43.0569],[-5.6364,43.0352],[-5.5404,43.0184],[-5.4482,43.0554],[-5.3905,43.0493],[-5.3831,43.0872],[-5.2821,43.0774],[-5.1886,43.0998],[-5.1017,43.1018],[-5.0948,43.1434],[-5.0638,43.1795],[-4.9965,43.1858],[-4.9434,43.2246],[-4.8934,43.2384],[-4.8392,43.1898],[-4.8514,43.1259],[-4.8328,43.1027],[-4.7665,43.0745],[-4.737,43.021]]]},"properties":{"Codigo":"24","Texto":"León","Texto_Alt":"León","Cod_CCAA":"07","CCAA":"Castilla y León"}},{"type":"Feature","geometry":{"type":"Polygon","coordinates":[[[-4.0813,42.7615],[-4.1096,42.7339],[-4.145,42.7525],[-4.257,42.6881],[-4.2739,42.617],[-4.2939,42.6053],[-4.2721,42.52],[-4.2461,42.4924],[-4.2533,42.4567],[-4.3067,42.4551],[-4.3353,42.4306],[-4.331,42.3909],[-4.2935,42.3881],[-4.2322,42.2569],[-4.2321,42.2173],[-4.1886,42.1764],[-4.205,42.1336],[-4.1202,42.1281],[-4.0562,42.1009],[-4.1041,42.0616],[-4.0799,42.0368],[-4.0109,42.0515],[-3.9802,42.043],[-4.0148,41.9986],[-3.9907,41.9598],[-3.9807,41.9006],[-4.0376,41.8728],[-4.0888,41.8707],[-4.0901,41.8309],[-4.038,41.7899],[-4.0409,41.7684],[-4.1003,41.7747],[-4.1507,41.7989],[-4.2363,41.8114],[-4.2866,41.7749],[-4.3259,41.768],[-4.404,41.7832],[-4.4501,41.7584],[-4.4937,41.7804],[-4.4733,41.843],[-4.4784,41.8433],[-4.5121,41.8233],[-4.5838,41.824],[-4.6697,41.9005],[-4.7892,41.818],[-4.8383,41.8985],[-4.8898,41.9328],[-5.0049,41.9379],[-4.9497,42.051],[-4.9168,42.0783],[-4.9275,42.1502],[-5.027,42.1539],[-5.0247,42.2199],[-5.0021,42.2891],[-4.9534,42.2972],[-4.9425,42.3465],[-4.9726,42.3744],[-4.9034,42.3856],[-4.888,42.537],[-4.916,42.5548],[-4.8947,42.6239],[-4.9003,42.6701],[-4.8717,42.708],[-4.9364,42.7445],[-4.9091,42.7794],[-4.8886,42.8411],[-4.8555,42.8917],[-4.8145,42.9234],[-4.7948,42.9867],[-4.737,43.021],[-4.6381,43.0167],[-4.6061,43.0358],[-4.5584,43.0195],[-4.5209,43.0474],[-4.4611,43.0607],[-4.3981,43.0349],[-4.3485,42.9726],[-4.2402,42.9565],[-4.2125,42.8463],[-4.1499,42.7893],[-4.0985,42.7912],[-4.0813,42.7615]]]},"properties":{"Codigo":"34","Texto":"Palencia","Texto_Alt":"Palencia","Cod_CCAA":"07","CCAA":"Castilla y León"}},{"type":"Feature","geometry":{"type":"Polygon","coordinates":[[[-5.1249,41.132],[-5.1486,41.0922],[-5.1465,41.0436],[-5.0995,41.013],[-5.092,41.0069],[-5.1276,40.9541],[-5.1259,40.9488],[-5.1249,40.9436],[-5.1216,40.9315],[-5.1113,40.9156],[-5.1525,40.874],[-5.1638,40.8684],[-5.1615,40.814],[-5.2928,40.7103],[-5.3648,40.6794],[-5.376,40.6465],[-5.3732,40.6388],[-5.4477,40.5796],[-5.4997,40.5816],[-5.5119,40.5482],[-5.4311,40.5672],[-5.4605,40.474],[-5.5094,40.4591],[-5.5448,40.4231],[-5.5898,40.4672],[-5.6342,40.4604],[-5.6912,40.422],[-5.6864,40.3554],[-5.7376,40.2941],[-5.765,40.2808],[-5.795,40.3512],[-5.885,40.3261],[-5.9078,40.2904],[-5.9417,40.2844],[-6.0053,40.3054],[-6.016,40.3403],[-6.0824,40.3632],[-6.0752,40.4034],[-6.1295,40.4208],[-6.2001,40.4824],[-6.241,40.4852],[-6.2944,40.452],[-6.3341,40.4477],[-6.3763,40.4002],[-6.5363,40.3472],[-6.5604,40.329],[-6.5562,40.2908],[-6.587,40.2707],[-6.6718,40.2632],[-6.7182,40.2692],[-6.7556,40.2463],[-6.8372,40.2486],[-6.8629,40.2974],[-6.7904,40.3347],[-6.781,40.3647],[-6.8348,40.4082],[-6.8497,40.4526],[-6.8106,40.5051],[-6.8008,40.5506],[-6.8448,40.5659],[-6.7939,40.6617],[-6.8312,40.7526],[-6.8176,40.8085],[-6.8602,40.9489],[-6.9312,41.0168],[-6.9151,41.0389],[-6.836,41.0282],[-6.7733,41.0747],[-6.7703,41.1244],[-6.6965,41.1864],[-6.6804,41.2186],[-6.6089,41.2497],[-6.5713,41.239],[-6.4797,41.2943],[-6.3914,41.2789],[-6.3723,41.2863],[-6.1345,41.1904],[-6.1093,41.2126],[-6.0088,41.2005],[-6.0026,41.1531],[-5.9632,41.146],[-5.9131,41.1783],[-5.9213,41.2182],[-5.8977,41.2386],[-5.8352,41.2203],[-5.7644,41.2161],[-5.6789,41.2319],[-5.5879,41.2024],[-5.555,41.2138],[-5.4966,41.1773],[-5.4076,41.1856],[-5.4002,41.1454],[-5.2979,41.1259],[-5.2887,41.182],[-5.274,41.1972],[-5.2719,41.198],[-5.2388,41.1939],[-5.2308,41.19],[-5.1364,41.1412],[-5.1283,41.1336],[-5.1249,41.132]]]},"properties":{"Codigo":"37","Texto":"Salamanca","Texto_Alt":"Salamanca","Cod_CCAA":"07","CCAA":"Castilla y León"}},{"type":"Feature","geometry":{"type":"Polygon","coordinates":[[[-4.1603,40.6899],[-4.2529,40.6895],[-4.275,40.6765],[-4.3197,40.6475],[-4.4196,40.6334],[-4.4311,40.7424],[-4.4806,40.7862],[-4.4932,40.8305],[-4.5464,40.8255],[-4.5353,40.8724],[-4.5553,40.8936],[-4.5664,40.9562],[-4.6067,40.9708],[-4.6395,41.0301],[-4.7032,41.0524],[-4.7091,41.0854],[-4.7171,41.0892],[-4.7221,41.1493],[-4.6806,41.1857],[-4.6364,41.1906],[-4.6239,41.2343],[-4.4959,41.3639],[-4.5153,41.3941],[-4.4106,41.4416],[-4.3317,41.445],[-4.3204,41.4484],[-4.2335,41.4557],[-4.1583,41.4821],[-4.1345,41.4778],[-3.9991,41.5167],[-3.9807,41.5834],[-3.9145,41.5635],[-3.8637,41.529],[-3.8239,41.4811],[-3.8006,41.5211],[-3.7715,41.5223],[-3.7698,41.4602],[-3.7324,41.4699],[-3.7283,41.5176],[-3.6453,41.5721],[-3.5416,41.5776],[-3.5349,41.5487],[-3.4797,41.5209],[-3.4205,41.5121],[-3.424,41.4827],[-3.346,41.4585],[-3.3472,41.397],[-3.3292,41.3763],[-3.2074,41.3042],[-3.2543,41.2584],[-3.3995,41.2545],[-3.4025,41.2136],[-3.4442,41.2153],[-3.4702,41.1839],[-3.5827,41.1614],[-3.634,41.1349],[-3.6795,41.0842],[-3.7304,41.0615],[-3.7819,41.0002],[-3.8794,40.9753],[-3.9527,40.8939],[-3.9466,40.8648],[-3.9797,40.7998],[-4.0195,40.7813],[-4.0702,40.7939],[-4.1603,40.6899]]]},"properties":{"Codigo":"40","Texto":"Segovia","Texto_Alt":"Segovia","Cod_CCAA":"07","CCAA":"Castilla y León"}},{"type":"Feature","geometry":{"type":"Polygon","coordinates":[[[-3.5416,41.5776],[-3.5397,41.6076],[-3.4685,41.589],[-3.4592,41.5896],[-3.4071,41.6759],[-3.3584,41.6934],[-3.3544,41.7373],[-3.2795,41.7727],[-3.2836,41.7782],[-3.279,41.8679],[-3.1387,41.8123],[-3.0877,41.8763],[-3.0168,41.8869],[-3.0081,41.9222],[-2.9136,42.0229],[-2.8838,42.0095],[-2.798,42.0468],[-2.7916,42.1088],[-2.7347,42.125],[-2.7084,42.0863],[-2.7574,42.0331],[-2.6736,41.9981],[-2.5799,41.9963],[-2.552,42.0456],[-2.5149,42.0689],[-2.5147,42.1145],[-2.4586,42.1153],[-2.4378,42.1373],[-2.3182,42.1452],[-2.2378,42.1022],[-2.1367,42.1031],[-2.1619,42.0667],[-2.117,42.0215],[-2.11,41.9579],[-2.0283,41.9534],[-1.9841,41.9201],[-1.9406,41.9255],[-1.8565,41.9664],[-1.8573,41.9095],[-1.8226,41.8654],[-1.8186,41.83],[-1.8529,41.7896],[-1.8253,41.7784],[-1.7754,41.7248],[-1.8131,41.6606],[-1.859,41.6615],[-1.9231,41.5983],[-1.9932,41.6005],[-1.9673,41.5461],[-1.9811,41.4864],[-1.9533,41.4625],[-1.9537,41.4086],[-2.0293,41.3842],[-2.0356,41.4269],[-2.1015,41.4458],[-2.1258,41.3696],[-2.1705,41.3188],[-2.1462,41.1844],[-2.0799,41.171],[-2.0517,41.1468],[-2.0656,41.0958],[-2.1434,41.1026],[-2.1753,41.0838],[-2.2321,41.097],[-2.2635,41.0675],[-2.3234,41.0565],[-2.3553,41.0865],[-2.4021,41.0617],[-2.4695,41.0781],[-2.4823,41.1163],[-2.5174,41.1479],[-2.5813,41.1408],[-2.5775,41.1787],[-2.6548,41.2407],[-2.7609,41.274],[-2.7832,41.2539],[-2.8669,41.2745],[-2.8755,41.3214],[-2.9067,41.3276],[-2.9441,41.2975],[-3.0619,41.2734],[-3.2074,41.3042],[-3.3292,41.3763],[-3.3472,41.397],[-3.346,41.4585],[-3.424,41.4827],[-3.4205,41.5121],[-3.4797,41.5209],[-3.5349,41.5487],[-3.5416,41.5776]]]},"properties":{"Codigo":"42","Texto":"Soria","Texto_Alt":"Soria","Cod_CCAA":"07","CCAA":"Castilla y León"}},{"type":"Feature","geometry":{"type":"MultiPolygon","coordinates":[[[[-4.7221,41.1493],[-4.7862,41.1436],[-4.828,41.0992],[-4.8637,41.094],[-4.9897,41.1608],[-5.0599,41.1386],[-5.1249,41.132],[-5.1283,41.1336],[-5.1364,41.1412],[-5.2308,41.19],[-5.2388,41.1939],[-5.2719,41.198],[-5.274,41.1972],[-5.2887,41.182],[-5.3027,41.2241],[-5.2973,41.2923],[-5.3221,41.3263],[-5.3392,41.4256],[-5.3362,41.4757],[-5.2619,41.5037],[-5.2289,41.5284],[-5.2931,41.5744],[-5.2775,41.6051],[-5.3289,41.6159],[-5.3274,41.6805],[-5.3914,41.7605],[-5.3415,41.7892],[-5.3291,41.789],[-5.3042,41.8267],[-5.3077,41.8257],[-5.3115,41.8823],[-5.2937,41.9199],[-5.3124,41.9495],[-5.2806,41.9788],[-5.3233,42.0189],[-5.3763,42.0415],[-5.3715,42.1301],[-5.3889,42.1725],[-5.3881,42.2214],[-5.3121,42.1998],[-5.2656,42.2109],[-5.2447,42.2639],[-5.1979,42.2605],[-5.0938,42.3093],[-5.0021,42.2891],[-5.0247,42.2199],[-5.027,42.1539],[-4.9275,42.1502],[-4.9168,42.0783],[-4.9497,42.051],[-5.0049,41.9379],[-4.8898,41.9328],[-4.8383,41.8985],[-4.7892,41.818],[-4.6697,41.9005],[-4.5838,41.824],[-4.5121,41.8233],[-4.4784,41.8433],[-4.4733,41.843],[-4.4937,41.7804],[-4.4501,41.7584],[-4.404,41.7832],[-4.3259,41.768],[-4.2866,41.7749],[-4.2363,41.8114],[-4.1507,41.7989],[-4.1003,41.7747],[-4.0409,41.7684],[-4.0529,41.7196],[-4.026,41.6924],[-4.0304,41.6305],[-3.9807,41.5834],[-3.9991,41.5167],[-4.1345,41.4778],[-4.1583,41.4821],[-4.2335,41.4557],[-4.3204,41.4484],[-4.3317,41.445],[-4.4106,41.4416],[-4.5153,41.3941],[-4.4959,41.3639],[-4.6239,41.2343],[-4.6364,41.1906],[-4.6806,41.1857],[-4.7221,41.1493]]],[[[-5.5209,42.0971],[-5.4809,42.0524],[-5.4216,42.0307],[-5.447,41.9729],[-5.5077,42.0575],[-5.5209,42.0971]]]]},"properties":{"Codigo":"47","Texto":"Valladolid","Texto_Alt":"Valladolid","Cod_CCAA":"07","CCAA":"Castilla y León"}},{"type":"Feature","geometry":{"type":"Polygon","coordinates":[[[-5.4216,42.0307],[-5.3763,42.0415],[-5.3233,42.0189],[-5.2806,41.9788],[-5.3124,41.9495],[-5.2937,41.9199],[-5.3115,41.8823],[-5.3077,41.8257],[-5.3042,41.8267],[-5.3291,41.789],[-5.3415,41.7892],[-5.3914,41.7605],[-5.3274,41.6805],[-5.3289,41.6159],[-5.2775,41.6051],[-5.2931,41.5744],[-5.2289,41.5284],[-5.2619,41.5037],[-5.3362,41.4757],[-5.3392,41.4256],[-5.3221,41.3263],[-5.2973,41.2923],[-5.3027,41.2241],[-5.2887,41.182],[-5.2979,41.1259],[-5.4002,41.1454],[-5.4076,41.1856],[-5.4966,41.1773],[-5.555,41.2138],[-5.5879,41.2024],[-5.6789,41.2319],[-5.7644,41.2161],[-5.8352,41.2203],[-5.8977,41.2386],[-5.9213,41.2182],[-5.9131,41.1783],[-5.9632,41.146],[-6.0026,41.1531],[-6.0088,41.2005],[-6.1093,41.2126],[-6.1345,41.1904],[-6.3723,41.2863],[-6.3914,41.2789],[-6.4797,41.2943],[-6.4381,41.3053],[-6.394,41.3708],[-6.3158,41.39],[-6.328,41.4157],[-6.2834,41.48],[-6.1893,41.575],[-6.2535,41.6331],[-6.3022,41.6627],[-6.3568,41.677],[-6.4484,41.6839],[-6.5121,41.6612],[-6.5482,41.6856],[-6.565,41.7515],[-6.5436,41.7878],[-6.5179,41.8754],[-6.5712,41.8836],[-6.5486,41.9239],[-6.5994,41.9482],[-6.6993,41.9333],[-6.7506,41.9434],[-6.7687,41.9839],[-6.8115,41.9925],[-6.8212,41.9463],[-6.9443,41.9451],[-6.9912,41.984],[-6.9664,42.0238],[-7.0118,42.0524],[-6.9864,42.1242],[-6.9446,42.1417],[-6.9383,42.1774],[-6.8869,42.2144],[-6.7843,42.2536],[-6.7038,42.2094],[-6.6386,42.2173],[-6.6133,42.2032],[-6.526,42.2034],[-6.4976,42.182],[-6.4279,42.2019],[-6.3295,42.1999],[-6.252,42.1731],[-6.2124,42.1481],[-6.1055,42.162],[-6.0288,42.1576],[-5.9535,42.1237],[-5.9116,42.1406],[-5.8381,42.1188],[-5.7595,42.1344],[-5.7429,42.1133],[-5.6434,42.131],[-5.6053,42.0806],[-5.5973,42.0794],[-5.5528,42.0637],[-5.5209,42.0971],[-5.5077,42.0575],[-5.447,41.9729],[-5.4216,42.0307]]]},"properties":{"Codigo":"49","Texto":"Zamora","Texto_Alt":"Zamora","Cod_CCAA":"07","CCAA":"Castilla y León"}}]}